NORAD_CAT_ID,OBJECT_NAME,OBJECT_TYPE,EPOCH,MEAN_MOTION,ECCENTRICITY,INCLINATION,RA_OF_ASC_NODE,ARG_OF_PERICENTER,MEAN_ANOMALY,BSTAR,MEAN_MOTION_DOT,MEAN_MOTION_DDOT,TLE_LINE0,TLE_LINE1,TLE_LINE2,SEMIMAJOR_AXIS,PERIOD,APOGEE,PERIGEE,DECAYED
55651.0,STARLINK-5506,PAYLOAD,2023-12-12 17:01:01,14.98331983,0.0002537,70.0011,86.969,270.6739,89.413,-0.00012401,-1.572e-05,0.0,0 STARLINK-5506,1 55651U 23021Z   23346.70904182 -.00001572  00000-0 -12401-3 0  9997,2 55651  70.0011  86.9690 0002537 270.6739  89.4130 14.98331983 46264,6950.187,96.107,573.815,570.288,0.0
55651.0,STARLINK-5506,PAYLOAD,2023-12-13 10:38:28,14.98369681,0.0002367,70.0005,85.1159,270.9296,89.1592,-0.0006739,-8.132e-05,0.0,0 STARLINK-5506,1 55651U 23021Z   23347.44339077 -.00008132  00000-0 -67390-3 0  9990,2 55651  70.0005  85.1159 0002367 270.9296  89.1592 14.98369681 46074,6950.07,96.104,573.58,570.29,0.0
55651.0,STARLINK-5506,PAYLOAD,2023-12-13 13:50:45,14.98335485,0.000246,70.0007,84.7791,265.6289,94.4589,-9.0272e-05,-1.17e-05,0.0,0 STARLINK-5506,1 55651U 23021Z   23347.57691344 -.00001170  00000-0 -90272-4 0  9993,2 55651  70.0007  84.7791 0002460 265.6289  94.4589 14.98335485 46395,6950.176,96.107,573.751,570.331,0.0
55651.0,STARLINK-5506,PAYLOAD,2023-12-13 17:03:00,14.98341478,0.0002982,69.9999,84.4441,270.5471,89.5346,-7.1381e-05,-9.45e-06,0.0,0 STARLINK-5506,1 55651U 23021Z   23347.71042786 -.00000945  00000-0 -71381-4 0  9998,2 55651  69.9999  84.4441 0002982 270.5471  89.5346 14.98341478 46113,6950.157,96.106,574.095,569.95,0.0
55651.0,STARLINK-5506,PAYLOAD,2023-12-14 12:16:37,14.98327996,0.0002771,70.0006,82.4237,273.3251,86.7591,5.4741e-05,5.6e-06,0.0,0 STARLINK-5506,1 55651U 23021Z   23348.51154998  .00000560  00000-0  54741-4 0  9998,2 55651  70.0006  82.4237 0002771 273.3251  86.7591 14.98327996 46232,6950.199,96.107,573.99,570.138,0.0
55651.0,STARLINK-5506,PAYLOAD,2023-12-14 13:52:45,14.98329406,0.0002725,70.0006,82.2553,272.0825,88.0022,7.2084e-05,7.67e-06,0.0,0 STARLINK-5506,1 55651U 23021Z   23348.57830855  .00000767  00000-0  72084-4 0  9996,2 55651  70.0006  82.2553 0002725 272.0825  88.0022 14.98329406 46549,6950.195,96.107,573.954,570.166,0.0
55651.0,STARLINK-5506,PAYLOAD,2023-12-14 15:28:53,14.98330037,0.0002716,70.0006,82.087,271.8129,88.2719,7.7518e-05,8.32e-06,0.0,0 STARLINK-5506,1 55651U 23021Z   23348.64506797  .00000832  00000-0  77518-4 0  9999,2 55651  70.0006  82.0870 0002716 271.8129  88.2719 14.98330037 46551,6950.193,96.107,573.945,570.17,0.0
55651.0,STARLINK-5506,PAYLOAD,2023-12-15 13:54:47,14.98323386,0.0002609,70.0008,79.7311,262.9401,97.1462,-7.7185e-05,-1.014e-05,0.0,0 STARLINK-5506,1 55651U 23021Z   23349.57971727 -.00001014  00000-0 -77185-4 0  9996,2 55651  70.0008  79.7311 0002609 262.9401  97.1462 14.98323386 46699,6950.213,96.107,573.892,570.265,0.0
55651.0,STARLINK-5506,PAYLOAD,2023-12-15 15:30:55,14.98323283,0.0002615,70.0008,79.5628,263.6668,96.4194,-7.7637e-05,-1.019e-05,0.0,0 STARLINK-5506,1 55651U 23021Z   23349.64647762 -.00001019  00000-0 -77637-4 0  9990,2 55651  70.0008  79.5628 0002615 263.6668  96.4194 14.98323283 46407,6950.214,96.107,573.896,570.261,0.0
55651.0,STARLINK-5506,PAYLOAD,2023-12-16 12:20:40,14.98329735,0.0002813,70.0005,77.3748,263.5275,96.5564,-2.5845e-05,-4.01e-06,0.0,0 STARLINK-5506,1 55651U 23021Z   23350.51435303 -.00000401  00000-0 -25845-4 0  9992,2 55651  70.0005  77.3748 0002813 263.5275  96.5564 14.98329735 46530,6950.194,96.107,574.014,570.104,0.0
55651.0,STARLINK-5506,PAYLOAD,2023-12-16 13:56:48,14.98331232,0.0002668,70.0009,77.2069,257.6508,102.4352,-1.5876e-05,-2.82e-06,0.0,0 STARLINK-5506,1 55651U 23021Z   23350.58111162 -.00000282  00000-0 -15876-4 0  9993,2 55651  70.0009  77.2069 0002668 257.6508 102.4352 14.98331232 46841,6950.189,96.107,573.908,570.2,0.0
55651.0,STARLINK-5506,PAYLOAD,2023-12-16 15:32:56,14.98331529,0.0002679,70.0008,77.0385,258.9707,101.115,-1.2855e-05,-2.46e-06,0.0,0 STARLINK-5506,1 55651U 23021Z   23350.64787136 -.00000246  00000-0 -12855-4 0  9994,2 55651  70.0008  77.0385 0002679 258.9707 101.1150 14.98331529 46858,6950.188,96.107,573.915,570.191,0.0
55651.0,STARLINK-5506,PAYLOAD,2023-12-17 12:22:41,14.98325457,0.0002708,70.0009,74.8503,256.5348,103.5509,5.1134e-05,5.17e-06,0.0,0 STARLINK-5506,1 55651U 23021Z   23351.51575417  .00000517  00000-0  51134-4 0  9990,2 55651  70.0009  74.8503 0002708 256.5348 103.5509 14.98325457 46682,6950.207,96.107,573.954,570.19,0.0
55651.0,STARLINK-5506,PAYLOAD,2023-12-17 13:58:49,14.98320045,0.0002662,70.0009,74.6815,258.4338,101.6522,2.816e-05,2.43e-06,0.0,0 STARLINK-5506,1 55651U 23021Z   23351.58251886  .00000243  00000-0  28160-4 0  9997,2 55651  70.0009  74.6815 0002662 258.4338 101.6522 14.98320045 46991,6950.224,96.108,573.939,570.239,0.0
55651.0,STARLINK-5506,PAYLOAD,2023-12-17 15:34:58,14.98313292,0.0002518,69.9998,74.5097,259.3194,100.7681,-4.6711e-05,-6.5e-06,0.0,0 STARLINK-5506,1 55651U 23021Z   23351.64928686 -.00000650  00000-0 -46711-4 0  9999,2 55651  69.9998  74.5097 0002518 259.3194 100.7681 14.98313292 46707,6950.245,96.108,573.86,570.359,0.0
55651.0,STARLINK-5506,PAYLOAD,2023-12-18 09:12:27,14.98318867,0.0002647,69.9995,72.6565,267.9193,92.1663,-3.5055e-05,-5.11e-06,0.0,0 STARLINK-5506,1 55651U 23021Z   23352.38364808 -.00000511  00000-0 -35055-4 0  9996,2 55651  69.9995  72.6565 0002647 267.9193  92.1663 14.98318867 46819,6950.227,96.108,573.932,570.253,0.0
55651.0,STARLINK-5506,PAYLOAD,2023-12-18 14:00:51,14.9832273,0.0002449,70.0003,72.153,265.23,94.8579,2.3241e-05,1.84e-06,0.0,0 STARLINK-5506,1 55651U 23021Z   23352.58392510  .00000184  00000-0  23241-4 0  9997,2 55651  70.0003  72.1530 0002449 265.2300  94.8579 14.98322730 47146,6950.215,96.107,573.782,570.378,0.0
55651.0,STARLINK-5506,PAYLOAD,2023-12-18 15:36:59,14.9832613,0.0002524,70.001,71.988,254.4401,105.6479,-2.2542e-05,-3.62e-06,0.0,0 STARLINK-5506,1 55651U 23021Z   23352.65068338 -.00000362  00000-0 -22542-4 0  9996,2 55651  70.0010  71.9880 0002524 254.4401 105.6479 14.98326130 46850,6950.205,96.107,573.824,570.316,0.0
55651.0,STARLINK-5506,PAYLOAD,2023-12-19 09:14:26,14.98338668,0.0002666,69.9998,70.1334,266.7757,93.3097,0.00016164,1.837e-05,0.0,0 STARLINK-5506,1 55651U 23021Z   23353.38502872  .00001837  00000-0  16164-3 0  9991,2 55651  69.9998  70.1334 0002666 266.7757  93.3097 14.98338668 46964,6950.166,96.106,573.884,570.178,0.0
55651.0,STARLINK-5506,PAYLOAD,2023-12-19 14:02:49,14.9835737,0.0002383,70.0,69.6289,267.5114,92.5772,-4.312e-05,-6.08e-06,0.0,0 STARLINK-5506,1 55651U 23021Z   23353.58530092 -.00000608  00000-0 -43120-4 0  9998,2 55651  70.0000  69.6289 0002383 267.5114  92.5772 14.98357370 47294,6950.108,96.105,573.629,570.317,0.0
55651.0,STARLINK-5506,PAYLOAD,2023-12-19 15:38:58,14.98344824,0.0002456,70.0004,69.4616,253.2044,106.8845,0.00020342,2.336e-05,0.0,0 STARLINK-5506,1 55651U 23021Z   23353.65206151  .00002336  00000-0  20342-3 0  9990,2 55651  70.0004  69.4616 0002456 253.2044 106.8845 14.98344824 47004,6950.147,96.106,573.719,570.305,0.0
55651.0,STARLINK-5506,PAYLOAD,2023-12-20 09:16:28,14.98328395,0.0002516,70.0036,67.6184,242.5147,117.5757,2.0704e-05,1.54e-06,0.0,0 STARLINK-5506,1 55651U 23021Z   23354.38643746  .00000154  00000-0  20704-4 0  9995,2 55651  70.0036  67.6184 0002516 242.5147 117.5757 14.98328395 47119,6950.198,96.107,573.812,570.314,0.0
55651.0,STARLINK-5506,PAYLOAD,2023-12-20 14:04:52,14.98325398,0.0002683,70.0015,67.1088,241.2845,118.8045,-2.171e-05,-3.52e-06,0.0,0 STARLINK-5506,1 55651U 23021Z   23354.58671987 -.00000352  00000-0 -21710-4 0  9995,2 55651  70.0015  67.1088 0002683 241.2845 118.8045 14.98325398 47440,6950.207,96.107,573.937,570.207,0.0
55651.0,STARLINK-5506,PAYLOAD,2023-12-21 09:18:28,14.98342074,0.0003023,69.9997,65.0854,268.0028,92.0785,-0.00010073,-1.295e-05,0.0,0 STARLINK-5506,1 55651U 23021Z   23355.38782854 -.00001295  00000-0 -10073-3 0  9996,2 55651  69.9997  65.0854 0003023 268.0028  92.0785 14.98342074 47267,6950.156,96.106,574.122,569.92,0.0
55651.0,STARLINK-5506,PAYLOAD,2023-12-21 14:06:51,14.98347313,0.0002827,70.0003,64.5816,260.9846,99.0993,-3.9655e-05,-5.66e-06,0.0,0 STARLINK-5506,1 55651U 23021Z   23355.58810138 -.00000566  00000-0 -39655-4 0  9993,2 55651  70.0003  64.5816 0002827 260.9846  99.0993 14.98347313 47595,6950.139,96.106,573.969,570.04,0.0
55651.0,STARLINK-5506,PAYLOAD,2023-12-22 10:56:37,14.98324629,0.0002781,70.0011,62.3944,252.2326,107.853,4.9548e-06,-3.4e-07,0.0,0 STARLINK-5506,1 55651U 23021Z   23356.45599276 -.00000034  00000-0  49548-5 0  9999,2 55651  70.0011  62.3944 0002781 252.2326 107.8530 14.98324629 47420,6950.21,96.107,574.007,570.142,0.0
55651.0,STARLINK-5506,PAYLOAD,2023-12-22 14:08:53,14.98325754,0.0002809,70.0007,62.0558,272.2433,87.8404,7.243e-05,7.71e-06,0.0,0 STARLINK-5506,1 55651U 23021Z   23356.58951196  .00000771  00000-0  72430-4 0  9998,2 55651  70.0007  62.0558 0002809 272.2433  87.8404 14.98325754 47747,6950.206,96.107,574.023,570.119,0.0
55651.0,STARLINK-5506,PAYLOAD,2023-12-23 10:58:39,14.98319708,0.0002699,70.0012,59.869,255.2246,104.8614,-0.00011592,-1.475e-05,0.0,0 STARLINK-5506,1 55651U 23021Z   23357.45740062 -.00001475  00000-0 -11592-3 0  9998,2 55651  70.0012  59.8690 0002699 255.2246 104.8614 14.98319708 47570,6950.225,96.108,573.966,570.214,0.0
55651.0,STARLINK-5506,PAYLOAD,2023-12-23 14:10:54,14.98336709,0.0002961,70.0004,59.5318,256.5641,103.5189,-2.153e-05,-3.5e-06,0.0,0 STARLINK-5506,1 55651U 23021Z   23357.59090635 -.00000350  00000-0 -21530-4 0  9992,2 55651  70.0004  59.5318 0002961 256.5641 103.5189 14.98336709 47898,6950.172,96.107,574.095,569.979,0.0
55651.0,STARLINK-5506,PAYLOAD,2023-12-24 14:12:55,14.98325619,0.000283,70.0005,57.0066,263.6384,96.4453,0.00022134,2.549e-05,0.0,0 STARLINK-5506,1 55651U 23021Z   23358.59230641  .00002549  00000-0  22134-3 0  9996,2 55651  70.0005  57.0066 0002830 263.6384  96.4453 14.98325619 48040,6950.206,96.107,574.038,570.105,0.0
